     2.100          NAVIGATION                              RINEX VERSION / TYPE
fic2rin                                 10/27/2015 00:05:56 PGM / RUN BY / DATE
                                                            END OF HEADER
18 15 10 26 12  0  0.0  .446688849479D-03  .363797880709D-11  .000000000000D+00
     .110000000000D+02 -.311562500000D+02  .491341894934D-08 -.196786483027D+01
    -.166893005371D-05  .163610222517D-01  .135637819767D-04  .515364708519D+04
     .129600000000D+06  .324100255966D-06  .261620841183D+01 -.113621354103D-06
     .925305609573D+00  .970312500000D+02 -.193293163537D+01 -.795318842508D-08
    -.519307345521D-09  .100000000000D+01  .186800000000D+04  .000000000000D+00
     .240000000000D+01  .000000000000D+00 -.111758708954D-07  .110000000000D+02
     .122406000000D+06  .400000000000D+01
19 15 10 26 12  0  0.0 -.521994661540D-03 -.454747350886D-12  .000000000000D+00
     .300000000000D+02  .715000000000D+02  .464483633322D-08  .102879213606D+01
     .399164855480D-05  .113464272581D-01  .834651291370D-05  .515515356255D+04
     .129600000000D+06 -.633299350739D-07  .640725741416D+00  .162050127983D-06
     .971139391831D+00  .224843750000D+03  .656956861393D+00 -.826391565383D-08
     .489663253583D-09  .100000000000D+01  .186800000000D+04  .000000000000D+00
     .240000000000D+01  .000000000000D+00 -.149011611938D-07  .300000000000D+02
     .122406000000D+06  .400000000000D+01
20 15 10 26 12  0  0.0  .366104301065D-03  .295585778076D-11  .000000000000D+00
     .740000000000D+02 -.442187500000D+02  .510485549486D-08  .208331062867D+01
    -.246986746788D-05  .498548336327D-02  .137165188789D-04  .515366450500D+04
     .129600000000D+06  .689178705215D-07  .256410455391D+01 -.121071934700D-06
     .926481381703D+00  .958750000000D+02  .125553344598D+01 -.826034407649D-08
    -.646455498895D-09  .100000000000D+01  .186800000000D+04  .000000000000D+00
     .240000000000D+01  .000000000000D+00 -.838190317154D-08  .740000000000D+02
     .122406000000D+06  .400000000000D+01
21 15 10 26 12  0  0.0 -.489295925945D-03 -.250111042988D-11  .000000000000D+00
     .660000000000D+02 -.269062500000D+02  .590917471227D-08 -.102981875053D+01
    -.105611979961D-05  .226360332454D-01  .361911952496D-05  .515372296333D+04
     .129600000000D+06 -.108033418655D-06  .157323803947D+01  .551342964172D-06
     .934372726089D+00  .295343750000D+03 -.186773907865D+01 -.914073789128D-08
    -.357872049664D-09  .100000000000D+01  .186800000000D+04  .000000000000D+00
     .340000000000D+01  .000000000000D+00 -.116415321827D-07  .660000000000D+02
     .122406000000D+06  .400000000000D+01
22 15 10 26 12  0  0.0  .404520425946D-03  .375166564481D-11  .000000000000D+00
     .570000000000D+02 -.345000000000D+02  .496877839814D-08 -.245309403932D+01
    -.178255140781D-05  .799209228717D-02  .134464353323D-04  .515368346214D+04
     .129600000000D+06 -.558793544769D-08  .261709843217D+01 -.108033418655D-06
     .923136423903D+00  .990312500000D+02 -.204660234507D+01 -.805604985253D-08
    -.483948729836D-09  .100000000000D+01  .186800000000D+04  .000000000000D+00
     .240000000000D+01  .000000000000D+00 -.176951289177D-07  .570000000000D+02
     .122406000000D+06  .400000000000D+01
23 15 10 26 12  0  0.0 -.140961725265D-03 -.204636307899D-11  .000000000000D+00
     .440000000000D+02  .122406250000D+03  .478841374237D-08  .156854097379D+01
     .648945569992D-05  .103959935950D-01  .798329710960D-05  .515378892517D+04
     .129600000000D+06 -.171363353729D-06 -.259323263240D+01  .132247805595D-06
     .947644753391D+00  .220937500000D+03 -.262409553131D+01 -.843213694664D-08
     .333585323739D-09  .100000000000D+01  .186800000000D+04  .000000000000D+00
     .240000000000D+01  .000000000000D+00 -.200234353542D-07  .440000000000D+02
     .122406000000D+06  .400000000000D+01
24 15 10 26 12  0  0.0 -.694952905178D-05 -.568434188608D-12  .000000000000D+00
     .310000000000D+02 -.479062500000D+02  .526379068658D-08  .920755482305D+00
    -.256486237049D-05  .359463086352D-02  .124424695969D-05  .515364687729D+04
     .129600000000D+06 -.111758708954D-07 -.156627002168D+01  .912696123123D-07
     .951510117964D+00  .351187500000D+03  .294115396413D+00 -.886251201634D-08
    -.225366530278D-09  .100000000000D+01  .186800000000D+04  .000000000000D+00
     .240000000000D+01  .000000000000D+00  .279396772385D-08  .310000000000D+02
     .122406000000D+06  .400000000000D+01
25 15 10 26 12  0  0.0 -.580316409469D-04 -.557065504836D-11  .000000000000D+00
     .670000000000D+02 -.103312500000D+03  .390051961516D-08 -.114686538654D+01
    -.530481338501D-05  .467006640974D-02  .133980065584D-04  .515361770630D+04
     .129600000000D+06  .139698386192D-06 -.499309576122D+00  .260770320892D-07
     .978790466552D+00  .130718750000D+03  .725967837646D+00 -.775603735580D-08
    -.186436337250D-09  .100000000000D+01  .186800000000D+04  .000000000000D+00
     .240000000000D+01  .000000000000D+00  .558793544769D-08  .670000000000D+02
     .122406000000D+06  .400000000000D+01
26 15 10 26 12  0  0.0 -.980240292847D-04 -.140971678775D-10  .000000000000D+00
     .260000000000D+02 -.963125000000D+02  .432410868791D-08 -.154443640823D+01
    -.515952706337D-05  .258306856267D-03  .122655183077D-04  .515365721893D+04
     .129600000000D+06 -.428408384323D-07 -.504541898664D+00  .186264514923D-08
     .960845211814D+00  .144812500000D+03 -.185907968910D+00 -.790497213096D-08
    -.144291724615D-09  .100000000000D+01  .186800000000D+04  .000000000000D+00
     .240000000000D+01  .000000000000D+00  .745058059692D-08  .260000000000D+02
     .122406000000D+06  .400000000000D+01
27 15 10 26 12  0  0.0  .306493602693D-04  .306954461848D-11  .000000000000D+00
     .103000000000D+03  .685625000000D+02  .449983029314D-08  .272141052869D+01
     .364705920219D-05  .271487759892D-02  .934489071369D-05  .515370479393D+04
     .129600000000D+06 -.102445483208D-06  .542888047798D+00 -.689178705215D-07
     .969080919802D+00  .203062500000D+03  .301988483581D+00 -.797283210046D-08
     .703600736366D-09  .100000000000D+01  .186800000000D+04  .000000000000D+00
     .240000000000D+01  .000000000000D+00  .186264514923D-08  .103000000000D+03
     .122406000000D+06  .400000000000D+01
28 15 10 26 12  0  0.0  .477064400911D-03  .261479726760D-11  .000000000000D+00
     .530000000000D+02 -.760625000000D+02  .350336021473D-08 -.272173341226D+01
    -.402890145779D-05  .198409941513D-01  .134985893965D-04  .515370570755D+04
     .129600000000D+06  .275671482086D-06 -.427037247838D+00  .106170773506D-06
     .989624931474D+00  .125906250000D+03 -.165396399202D+01 -.721315759982D-08
     .214294640518D-11  .100000000000D+01  .186800000000D+04  .000000000000D+00
     .240000000000D+01  .000000000000D+00 -.111758708954D-07  .530000000000D+02
     .122406000000D+06  .400000000000D+01
29 15 10 26 12  0  0.0  .641467981040D-03  .193267624127D-11  .000000000000D+00
     .410000000000D+02  .683437500000D+02  .451875965305D-08 -.102878591574D+01
     .366196036339D-05  .854911748320D-03  .920891761780D-05  .515367133331D+04
     .129600000000D+06  .117346644402D-06  .601048943941D+00 -.409781932831D-07
     .975002867777D+00  .209281250000D+03 -.501171788914D+00 -.810998067039D-08
     .739316509786D-09  .100000000000D+01  .186800000000D+04  .000000000000D+00
     .240000000000D+01  .000000000000D+00 -.102445483208D-07  .410000000000D+02
     .122406000000D+06  .400000000000D+01
30 15 10 26 12  0  0.0  .471961684525D-04  .602540239925D-11  .000000000000D+00
     .540000000000D+02 -.677812500000D+02  .507235414105D-08 -.142069220702D+00
    -.348128378391D-05  .169675750658D-02  .238046050072D-05  .515367560768D+04
     .129600000000D+06 -.130385160446D-07 -.147554490118D+01 -.111758708954D-07
     .954145743360D+00  .327937500000D+03 -.312379588211D+01 -.870107672049D-08
    -.226080845746D-09  .100000000000D+01  .186800000000D+04  .000000000000D+00
     .240000000000D+01  .000000000000D+00  .325962901115D-08  .540000000000D+02
     .122406000000D+06  .400000000000D+01
31 15 10 26 12  0  0.0  .297745689750D-03 -.147792889038D-11  .000000000000D+00
     .760000000000D+02 -.522812500000D+02  .472412535021D-08 -.528725862640D-01
    -.278465449810D-05  .820352393202D-02  .184401869774D-05  .515361361885D+04
     .129600000000D+06  .119209289551D-06 -.151433935278D+01 -.987201929092D-07
     .973220882876D+00  .346187500000D+03 -.511455873333D+00 -.863428822419D-08
    -.196436753808D-09  .100000000000D+01  .186800000000D+04  .000000000000D+00
     .240000000000D+01  .000000000000D+00 -.135041773319D-07  .760000000000D+02
     .122406000000D+06  .400000000000D+01
32 15 10 26 12  0  0.0 -.263191759586D-05  .117097442853D-10  .000000000000D+00
     .750000000000D+02 -.696875000000D+01  .462304971143D-08  .363307816932D+00
    -.376254320145D-06  .113578881137D-01  .129006803036D-04  .515367219162D+04
     .129600000000D+06  .206753611565D-06  .272156172420D+01  .130385160446D-06
     .947235137791D+00  .123812500000D+03  .157859531277D+00 -.814676791701D-08
    -.393944980818D-09  .100000000000D+01  .186800000000D+04  .000000000000D+00
     .240000000000D+01  .000000000000D+00 -.325962901115D-08  .750000000000D+02
     .122406000000D+06  .400000000000D+01
14 15 10 26 11 59 44.0  .257380306721D-04 -.238742359215D-11  .000000000000D+00
     .160000000000D+02  .126062500000D+03  .432910889619D-08  .272399151702D+01
     .652112066746D-05  .842670293059D-02  .710226595402D-05  .515367630196D+04
     .129584000000D+06  .260770320892D-07 -.251862403418D+01 -.126659870148D-06
     .965672241679D+00  .241062500000D+03 -.195085039373D+01 -.804140638542D-08
     .542165440510D-09  .100000000000D+01  .186800000000D+04  .000000000000D+00
     .240000000000D+01  .000000000000D+00 -.931322574615D-08  .160000000000D+02
     .125226000000D+06  .400000000000D+01
